H1 CPF 01  gfz 2021 03 16 01  5751 tandemx   
H2 1003001  6202 36605    2021 03 16 00 59 42 2021 03 21 00 00 42   120 1 1  0 0 0
H9
10 0 59291  46062.000000  0   -1547945.358  -4061948.594  -5351792.085
10 0 59291  46182.000000  0   -1492175.860  -3302110.995  -5866042.530
10 0 59291  46302.000000  0   -1396735.199  -2486318.228  -6277814.188
10 0 59291  46422.000000  0   -1262449.099  -1629443.517  -6580002.360
10 0 59291  46542.000000  0   -1091074.894   -747020.191  -6767403.369
10 0 59291  46662.000000  0    -885280.191    145036.650  -6836794.617
10 0 59291  46782.000000  0    -648601.578   1030711.181  -6786983.155
10 0 59291  46902.000000  0    -385384.807   1894166.653  -6618823.684
10 0 59291  47022.000000  0    -100708.116   2720020.975  -6335205.756
10 0 59291  47142.000000  0     199711.990   3493615.843  -5941011.431
10 0 59291  47262.000000  0     509631.719   4201275.392  -5443039.867
10 0 59291  47382.000000  0     822404.217   4830548.323  -4849900.653
10 0 59291  47502.000000  0    1131116.160   5370432.448  -4171877.042
10 0 59291  47622.000000  0    1428734.642   5811575.851  -3420757.531
10 0 59291  47742.000000  0    1708260.859   6146449.383  -2609638.890
10 0 59291  47862.000000  0    1962887.516   6369487.667  -1752702.770
10 0 59291  47982.000000  0    2186156.513   6477193.911   -864968.184
10 0 59291  48102.000000  0    2372112.622   6468204.046     37975.491
10 0 59291  48222.000000  0    2515448.871   6343308.199    940248.487
10 0 59291  48342.000000  0    2611640.008   6105429.100   1825967.399
10 0 59291  48462.000000  0    2657060.579   5759557.877   2679533.005
10 0 59291  48582.000000  0    2649084.962   5312648.892   3485912.918
10 0 59291  48702.000000  0    2586166.729   4773475.799   4230913.290
10 0 59291  48822.000000  0    2467894.488   4152452.508   4901434.832
10 0 59291  48942.000000  0    2295021.388   3461420.535   5485704.298
10 0 59291  49062.000000  0    2069471.625   2713415.232   5973476.660
10 0 59291  49182.000000  0    1794323.523   1922414.367   6356210.756
10 0 59291  49302.000000  0    1473767.468   1103071.377   6627214.166
10 0 59291  49422.000000  0    1113040.698    270440.374   6781753.068
10 0 59291  49542.000000  0     718341.026   -560299.673   6817129.202
10 0 59291  49662.000000  0     296720.109  -1374121.235   6732725.823
10 0 59291  49782.000000  0    -144042.828  -2156420.343   6530017.734
10 0 59291  49902.000000  0    -595584.609  -2893278.948   6212546.730
10 0 59291  50022.000000  0   -1049115.431  -3571713.511   5785861.538
10 0 59291  50142.000000  0   -1495586.923  -4179904.555   5257425.801
10 0 59291  50262.000000  0   -1925871.456  -4707406.975   4636496.085
10 0 59291  50382.000000  0   -2330949.392  -5145337.656   3933966.726
10 0 59291  50502.000000  0   -2702099.113  -5486534.536   3162181.530
10 0 59291  50622.000000  0   -3031084.260  -5725680.883   2334716.191
10 0 59291  50742.000000  0   -3310334.542  -5859393.725   1466137.478
10 0 59291  50862.000000  0   -3533116.243  -5886274.777    571742.110
10 0 59291  50982.000000  0   -3693687.886  -5806921.509   -332719.623
10 0 59291  51102.000000  0   -3787437.045  -5623898.204  -1231329.821
10 0 59291  51222.000000  0   -3810994.473  -5341666.605  -2108292.483
10 0 59291  51342.000000  0   -3762322.644  -4966478.087  -2948219.138
10 0 59291  51462.000000  0   -3640776.322  -4506230.754  -3736404.158
10 0 59291  51582.000000  0   -3447133.975  -3970296.329  -4459083.345
10 0 59291  51702.000000  0   -3183600.622  -3369322.337  -5103671.483
10 0 59291  51822.000000  0   -2853782.495  -2715013.932  -5658975.368
10 0 59291  51942.000000  0   -2462634.792  -2019901.101  -6115378.892
10 0 59291  52062.000000  0   -2016383.617  -1297096.382  -6464999.437
10 0 59291  52182.000000  0   -1522423.327   -560047.147  -6701812.502
10 0 59291  52302.000000  0    -989193.114    177711.770  -6821743.606
10 0 59291  52422.000000  0    -426034.915    902800.592  -6822730.141
10 0 59291  52542.000000  0     156966.959   1602230.953  -6704753.038
10 0 59291  52662.000000  0     749160.617   2263632.030  -6469837.686
10 0 59291  52782.000000  0    1339517.004   2875465.537  -6122025.067
10 0 59291  52902.000000  0    1916831.103   3427225.293  -5667309.168
10 0 59291  53022.000000  0    2469930.812   3909617.911  -5113543.453
10 0 59291  53142.000000  0    2987890.954   4314722.326  -4470316.985
10 0 59291  53262.000000  0    3460248.829   4636126.470  -3748799.593
10 0 59291  53382.000000  0    3877217.053   4869036.569  -2961557.071
10 0 59291  53502.000000  0    4229889.711   5010356.117  -2122338.025
10 0 59291  53622.000000  0    4510434.719   5058731.672  -1245836.085
10 0 59291  53742.000000  0    4712269.790   5014566.023   -347431.606
10 0 59291  53862.000000  0    4830215.787   4879994.232    557084.025
10 0 59291  53982.000000  0    4860621.698   4658824.520   1451792.599
10 0 59291  54102.000000  0    4801461.224   4356447.227   2320936.476
10 0 59291  54222.000000  0    4652397.756   3979711.012   3149205.999
10 0 59291  54342.000000  0    4414812.566   3536769.097   3922017.699
10 0 59291  54462.000000  0    4091797.536   3036901.014   4625775.915
10 0 59291  54582.000000  0    3688115.205   2490315.492   5248114.053
10 0 59291  54702.000000  0    3210122.905   1907937.389   5778112.637
10 0 59291  54822.000000  0    2665666.182   1301185.910   6206486.041
10 0 59291  54942.000000  0    2063945.205    681747.457   6525739.267
10 0 59291  55062.000000  0    1415355.526     61350.025   6730292.077
10 0 59291  55182.000000  0     731306.126   -548457.516   6816572.442
10 0 59291  55302.000000  0      24017.244  -1136520.850   6783075.661
10 0 59291  55422.000000  0    -693698.302  -1692283.951   6630388.242
10 0 59291  55542.000000  0   -1408667.009  -2205978.640   6361177.267
10 0 59291  55662.000000  0   -2107594.653  -2668795.899   5980145.257
10 0 59291  55782.000000  0   -2777311.653  -3073037.748   5493954.847
10 0 59291  55902.000000  0   -3405024.107  -3412249.442   4911120.403
10 0 59291  56022.000000  0   -3978563.337  -3681326.156   4241863.186
10 0 59291  56142.000000  0   -4486625.982  -3876592.432   3497935.388
10 0 59291  56262.000000  0   -4919001.590  -3995853.489   2692416.285
10 0 59291  56382.000000  0   -5266783.821  -4038417.703   1839482.684
10 0 59291  56502.000000  0   -5522559.022  -4005088.237    954155.126
10 0 59291  56622.000000  0   -5680566.486  -3898123.099     52026.938
10 0 59291  56742.000000  0   -5736826.944  -3721165.506   -851018.537
10 0 59291  56862.000000  0   -5689235.562  -3479145.915  -1739097.385
10 0 59291  56982.000000  0   -5537615.269  -3178157.098  -2596613.815
10 0 59291  57102.000000  0   -5283730.997  -2825307.512  -3408539.541
10 0 59291  57222.000000  0   -4931265.475  -2428556.808  -4160679.838
10 0 59291  57342.000000  0   -4485757.867  -1996537.675  -4839920.649
10 0 59291  57462.000000  0   -3954506.943  -1538369.023  -5434452.930
10 0 59291  57582.000000  0   -3346441.763  -1063464.091  -5933970.329
10 0 59291  57702.000000  0   -2671963.647   -581338.295  -6329837.186
10 0 59291  57822.000000  0   -1942763.121   -101421.131  -6615226.353
10 0 59291  57942.000000  0   -1171614.725    367124.173  -6785225.057
10 0 59291  58062.000000  0    -372155.726    815570.290  -6836909.446
10 0 59291  58182.000000  0     441349.708   1235784.221  -6769389.145
10 0 59291  58302.000000  0    1254257.561   1620370.020  -6583821.885
10 0 59291  58422.000000  0    2051802.229   1962796.843  -6283397.767
10 0 59291  58542.000000  0    2819359.585   2257508.897  -5873290.134
10 0 59291  58662.000000  0    3542711.645   2500015.464  -5360574.735
10 0 59291  58782.000000  0    4208307.937   2686960.068  -4754119.266
10 0 59291  58902.000000  0    4803522.528   2816168.335  -4064441.952
10 0 59291  59022.000000  0    5316899.268   2886672.114  -3303538.364
10 0 59291  59142.000000  0    5738379.184   2898709.586  -2484680.668
10 0 59291  59262.000000  0    6059508.141   2853701.813  -1622191.048
10 0 59291  59382.000000  0    6273615.628   2754203.385   -731190.416
10 0 59291  59502.000000  0    6375961.201   2603829.733    172669.840
10 0 59291  59622.000000  0    6363843.140   2407160.908   1073490.119
10 0 59291  59742.000000  0    6236666.704   2169625.689   1955408.803
10 0 59291  59862.000000  0    5995972.133   1897369.644   2802890.826
10 0 59291  59982.000000  0    5645417.578   1597107.690   3601010.277
10 0 59291  60102.000000  0    5190719.296   1275967.017   4335720.287
10 0 59291  60222.000000  0    4639549.833    941323.745   4994103.269
10 0 59291  60342.000000  0    4001400.584    600638.457   5564598.294
10 0 59291  60462.000000  0    3287408.383    261292.706   6037202.988
10 0 59291  60582.000000  0    2510151.632    -69567.615   6403642.858
10 0 59291  60702.000000  0    1683423.702   -385179.175   6657509.724
10 0 59291  60822.000000  0     821984.739   -679297.165   6794369.211
10 0 59291  60942.000000  0     -58704.896   -946317.651   6811833.600
10 0 59291  61062.000000  0    -942762.345  -1181383.427   6709599.798
10 0 59291  61182.000000  0   -1814167.866  -1380472.515   6489453.363
10 0 59291  61302.000000  0   -2657053.368  -1540466.629   6155238.206
10 0 59291  61422.000000  0   -3455990.030  -1659199.259   5712795.339
10 0 59291  61542.000000  0   -4196274.688  -1735484.427   5169868.514
10 0 59291  61662.000000  0   -4864206.114  -1769124.650   4535973.955
10 0 59291  61782.000000  0   -5447345.972  -1760896.760   3822237.621
10 0 59291  61902.000000  0   -5934758.006  -1712515.647   3041202.268
10 0 59291  62022.000000  0   -6317221.627  -1626577.610   2206608.840
10 0 59291  62142.000000  0   -6587417.132  -1506485.021   1333153.450
10 0 59291  62262.000000  0   -6740073.858  -1356352.522    436221.624
10 0 59291  62382.000000  0   -6772076.920  -1180897.038   -468390.619
10 0 59291  62502.000000  0   -6682530.813   -985314.965  -1364764.155
99
